SL-3 R/B                
1 13403U 82079B   26048.91214689  .00005401  00000+0  21701-3 0  9990
2 13403  81.1447 216.4241 0024309 232.2280 127.6752 15.24485672374687
SL-14 R/B               
1 13553U 82092B   26048.79812314  .00000523  00000+0  55962-4 0  9993
2 13553  82.5710 159.9992 0020544  11.6375 103.5315 14.86644245325972
SL-3 R/B                
1 13819U 83010B   26048.37234767  .00016448  00000+0  33883-3 0  9993
2 13819  81.1027  27.1402 0018519 114.8614 245.4559 15.45596456354802
SL-3 R/B                
1 14208U 83075B   26048.97530915  .00010366  00000+0  27867-3 0  9995
2 14208  97.6128  52.8159 0020030 303.6279  56.3054 15.37899861327120
COSMOS 1536             
1 14699U 84013A   26048.68975711  .00005637  00000+0  23401-3 0  9992
2 14699  82.5464 127.7247 0014030 359.1590   0.9621 15.23544257269575
SL-14 R/B               
1 14820U 84027B   26048.96314754  .00000403  00000+0  43211-4 0  9996
2 14820  82.5386 263.5188 0019003  42.4186 317.8495 14.85955741244703
SL-8 R/B                
1 15483U 85006B   26048.75729232  .00000185  00000+0  70221-4 0  9996
2 15483  74.0456 297.8271 0019211 219.7137 197.0810 14.37773051151167
SL-12 R/B(2)            
1 15772U 85042D   26048.65486516  .00000073  00000+0  54123-4 0  9990
2 15772  71.1082 130.0577 0034368 160.5141 308.0262 14.21976666111549
SL-14 R/B               
1 15945U 85069B   26048.41535194  .00000558  00000+0  60333-4 0  9990
2 15945  82.5247  43.9997 0017140 258.9569 100.9720 14.86408361169828
SL-16 R/B               
1 16182U 85097B   26048.80048244 -.00000080  00000+0 -16026-4 0  9995
2 16182  71.0026 182.4228 0009711 282.5299 185.1311 14.16594323 84413
SL-14 R/B               
1 16496U 86006B   26048.73423703  .00000607  00000+0  61941-4 0  9992
2 16496  82.5251 278.5219 0076083 340.0033  19.8205 14.86787947146245
COSMOS 1743             
1 16719U 86034A   26048.60012705  .00029372  00000+0  40480-3 0  9997
2 16719  82.5309  94.8914 0004267  25.8063 334.3404 15.57057340177127
