CCSDS_OMM_VERS = 2.0
CREATION_DATE  = 
ORIGINATOR     = 

OBJECT_NAME    = SL-3 R/B
OBJECT_ID      = 1982-079B
CENTER_NAME    = EARTH
REF_FRAME      = TEME
TIME_SYSTEM    = UTC
MEAN_ELEMENT_THEORY = SGP/SGP4

EPOCH          = 2026-02-17T21:53:29.491296
MEAN_MOTION    = 15.24485672
ECCENTRICITY   = .00243091
INCLINATION    = 81.1447
RA_OF_ASC_NODE = 216.4241
ARG_OF_PERICENTER = 232.2280
MEAN_ANOMALY   = 127.6752

EPHEMERIS_TYPE = 0
CLASSIFICATION_TYPE = U
NORAD_CAT_ID   = 13403
ELEMENT_SET_NO = 999
REV_AT_EPOCH   = 37468
BSTAR          = .21700544E-3
MEAN_MOTION_DOT = .5401E-4
MEAN_MOTION_DDOT = 0

CCSDS_OMM_VERS = 2.0
CREATION_DATE  = 
ORIGINATOR     = 

OBJECT_NAME    = SL-14 R/B
OBJECT_ID      = 1982-092B
CENTER_NAME    = EARTH
REF_FRAME      = TEME
TIME_SYSTEM    = UTC
MEAN_ELEMENT_THEORY = SGP/SGP4

EPOCH          = 2026-02-17T19:09:17.839296
MEAN_MOTION    = 14.86644245
ECCENTRICITY   = .00205447
INCLINATION    = 82.5710
RA_OF_ASC_NODE = 159.9992
ARG_OF_PERICENTER = 11.6375
MEAN_ANOMALY   = 103.5315

EPHEMERIS_TYPE = 0
CLASSIFICATION_TYPE = U
NORAD_CAT_ID   = 13553
ELEMENT_SET_NO = 999
REV_AT_EPOCH   = 32597
BSTAR          = .55962141E-4
MEAN_MOTION_DOT = .523E-5
MEAN_MOTION_DDOT = 0

CCSDS_OMM_VERS = 2.0
CREATION_DATE  = 
ORIGINATOR     = 

OBJECT_NAME    = SL-3 R/B
OBJECT_ID      = 1983-010B
CENTER_NAME    = EARTH
REF_FRAME      = TEME
TIME_SYSTEM    = UTC
MEAN_ELEMENT_THEORY = SGP/SGP4

EPOCH          = 2026-02-17T08:56:10.838688
MEAN_MOTION    = 15.45596456
ECCENTRICITY   = .00185192
INCLINATION    = 81.1027
RA_OF_ASC_NODE = 27.1402
ARG_OF_PERICENTER = 114.8614
MEAN_ANOMALY   = 245.4559

EPHEMERIS_TYPE = 0
CLASSIFICATION_TYPE = U
NORAD_CAT_ID   = 13819
ELEMENT_SET_NO = 999
REV_AT_EPOCH   = 35480
BSTAR          = .33882687E-3
MEAN_MOTION_DOT = .16448E-3
MEAN_MOTION_DDOT = 0

CCSDS_OMM_VERS = 2.0
CREATION_DATE  = 
ORIGINATOR     = 

OBJECT_NAME    = SL-3 R/B
OBJECT_ID      = 1983-075B
CENTER_NAME    = EARTH
REF_FRAME      = TEME
TIME_SYSTEM    = UTC
MEAN_ELEMENT_THEORY = SGP/SGP4

EPOCH          = 2026-02-17T23:24:26.710560
MEAN_MOTION    = 15.37899861
ECCENTRICITY   = .00200307
INCLINATION    = 97.6128
RA_OF_ASC_NODE = 52.8159
ARG_OF_PERICENTER = 303.6279
MEAN_ANOMALY   = 56.3054

EPHEMERIS_TYPE = 0
CLASSIFICATION_TYPE = U
NORAD_CAT_ID   = 14208
ELEMENT_SET_NO = 999
REV_AT_EPOCH   = 32712
BSTAR          = .27866719E-3
MEAN_MOTION_DOT = .10366E-3
MEAN_MOTION_DDOT = 0

CCSDS_OMM_VERS = 2.0
CREATION_DATE  = 
ORIGINATOR     = 

OBJECT_NAME    = COSMOS 1536
OBJECT_ID      = 1984-013A
CENTER_NAME    = EARTH
REF_FRAME      = TEME
TIME_SYSTEM    = UTC
MEAN_ELEMENT_THEORY = SGP/SGP4

EPOCH          = 2026-02-17T16:33:15.014304
MEAN_MOTION    = 15.23544257
ECCENTRICITY   = .00140308
INCLINATION    = 82.5464
RA_OF_ASC_NODE = 127.7247
ARG_OF_PERICENTER = 359.1590
MEAN_ANOMALY   = 0.9621

EPHEMERIS_TYPE = 0
CLASSIFICATION_TYPE = U
NORAD_CAT_ID   = 14699
ELEMENT_SET_NO = 999
REV_AT_EPOCH   = 26957
BSTAR          = .23401108E-3
MEAN_MOTION_DOT = .5637E-4
MEAN_MOTION_DDOT = 0

CCSDS_OMM_VERS = 2.0
CREATION_DATE  = 
ORIGINATOR     = 

OBJECT_NAME    = SL-14 R/B
OBJECT_ID      = 1984-027B
CENTER_NAME    = EARTH
REF_FRAME      = TEME
TIME_SYSTEM    = UTC
MEAN_ELEMENT_THEORY = SGP/SGP4

EPOCH          = 2026-02-17T23:06:55.947456
MEAN_MOTION    = 14.85955741
ECCENTRICITY   = .00190035
INCLINATION    = 82.5386
RA_OF_ASC_NODE = 263.5188
ARG_OF_PERICENTER = 42.4186
MEAN_ANOMALY   = 317.8495

EPHEMERIS_TYPE = 0
CLASSIFICATION_TYPE = U
NORAD_CAT_ID   = 14820
ELEMENT_SET_NO = 999
REV_AT_EPOCH   = 24470
BSTAR          = .43211227E-4
MEAN_MOTION_DOT = .403E-5
MEAN_MOTION_DDOT = 0

CCSDS_OMM_VERS = 2.0
CREATION_DATE  = 
ORIGINATOR     = 

OBJECT_NAME    = SL-8 R/B
OBJECT_ID      = 1985-006B
CENTER_NAME    = EARTH
REF_FRAME      = TEME
TIME_SYSTEM    = UTC
MEAN_ELEMENT_THEORY = SGP/SGP4

EPOCH          = 2026-02-17T18:10:30.056448
MEAN_MOTION    = 14.37773051
ECCENTRICITY   = .00192116
INCLINATION    = 74.0456
RA_OF_ASC_NODE = 297.8271
ARG_OF_PERICENTER = 219.7137
MEAN_ANOMALY   = 197.0810

EPHEMERIS_TYPE = 0
CLASSIFICATION_TYPE = U
NORAD_CAT_ID   = 15483
ELEMENT_SET_NO = 999
REV_AT_EPOCH   = 15116
BSTAR          = .70220649E-4
MEAN_MOTION_DOT = .185E-5
MEAN_MOTION_DDOT = 0

CCSDS_OMM_VERS = 2.0
CREATION_DATE  = 
ORIGINATOR     = 

OBJECT_NAME    = SL-12 R/B(2)
OBJECT_ID      = 1985-042D
CENTER_NAME    = EARTH
REF_FRAME      = TEME
TIME_SYSTEM    = UTC
MEAN_ELEMENT_THEORY = SGP/SGP4

EPOCH          = 2026-02-17T15:43:00.349824
MEAN_MOTION    = 14.21976666
ECCENTRICITY   = .0034368
INCLINATION    = 71.1082
RA_OF_ASC_NODE = 130.0577
ARG_OF_PERICENTER = 160.5141
MEAN_ANOMALY   = 308.0262

EPHEMERIS_TYPE = 0
CLASSIFICATION_TYPE = U
NORAD_CAT_ID   = 15772
ELEMENT_SET_NO = 999
REV_AT_EPOCH   = 11154
BSTAR          = .54122656E-4
MEAN_MOTION_DOT = .73E-6
MEAN_MOTION_DDOT = 0

CCSDS_OMM_VERS = 2.0
CREATION_DATE  = 
ORIGINATOR     = 

OBJECT_NAME    = SL-14 R/B
OBJECT_ID      = 1985-069B
CENTER_NAME    = EARTH
REF_FRAME      = TEME
TIME_SYSTEM    = UTC
MEAN_ELEMENT_THEORY = SGP/SGP4

EPOCH          = 2026-02-17T09:58:06.407616
MEAN_MOTION    = 14.86408361
ECCENTRICITY   = .00171405
INCLINATION    = 82.5247
RA_OF_ASC_NODE = 43.9997
ARG_OF_PERICENTER = 258.9569
MEAN_ANOMALY   = 100.9720

EPHEMERIS_TYPE = 0
CLASSIFICATION_TYPE = U
NORAD_CAT_ID   = 15945
ELEMENT_SET_NO = 999
REV_AT_EPOCH   = 16982
BSTAR          = .60333166E-4
MEAN_MOTION_DOT = .558E-5
MEAN_MOTION_DDOT = 0

CCSDS_OMM_VERS = 2.0
CREATION_DATE  = 
ORIGINATOR     = 

OBJECT_NAME    = SL-16 R/B
OBJECT_ID      = 1985-097B
CENTER_NAME    = EARTH
REF_FRAME      = TEME
TIME_SYSTEM    = UTC
MEAN_ELEMENT_THEORY = SGP/SGP4

EPOCH          = 2026-02-17T19:12:41.682816
MEAN_MOTION    = 14.16594323
ECCENTRICITY   = .0009711
INCLINATION    = 71.0026
RA_OF_ASC_NODE = 182.4228
ARG_OF_PERICENTER = 282.5299
MEAN_ANOMALY   = 185.1311

EPHEMERIS_TYPE = 0
CLASSIFICATION_TYPE = U
NORAD_CAT_ID   = 16182
ELEMENT_SET_NO = 999
REV_AT_EPOCH   = 8441
BSTAR          = -.16025966E-4
MEAN_MOTION_DOT = -.8E-6
MEAN_MOTION_DDOT = 0

CCSDS_OMM_VERS = 2.0
CREATION_DATE  = 
ORIGINATOR     = 

OBJECT_NAME    = SL-14 R/B
OBJECT_ID      = 1986-006B
CENTER_NAME    = EARTH
REF_FRAME      = TEME
TIME_SYSTEM    = UTC
MEAN_ELEMENT_THEORY = SGP/SGP4

EPOCH          = 2026-02-17T17:37:18.079392
MEAN_MOTION    = 14.86787947
ECCENTRICITY   = .00760834
INCLINATION    = 82.5251
RA_OF_ASC_NODE = 278.5219
ARG_OF_PERICENTER = 340.0033
MEAN_ANOMALY   = 19.8205

EPHEMERIS_TYPE = 0
CLASSIFICATION_TYPE = U
NORAD_CAT_ID   = 16496
ELEMENT_SET_NO = 999
REV_AT_EPOCH   = 14624
BSTAR          = .61941134E-4
MEAN_MOTION_DOT = .607E-5
MEAN_MOTION_DDOT = 0

CCSDS_OMM_VERS = 2.0
CREATION_DATE  = 
ORIGINATOR     = 

OBJECT_NAME    = COSMOS 1743
OBJECT_ID      = 1986-034A
CENTER_NAME    = EARTH
REF_FRAME      = TEME
TIME_SYSTEM    = UTC
MEAN_ELEMENT_THEORY = SGP/SGP4

EPOCH          = 2026-02-17T14:24:10.977120
MEAN_MOTION    = 15.57057340
ECCENTRICITY   = .0004267
INCLINATION    = 82.5309
RA_OF_ASC_NODE = 94.8914
ARG_OF_PERICENTER = 25.8063
MEAN_ANOMALY   = 334.3404

EPHEMERIS_TYPE = 0
CLASSIFICATION_TYPE = U
NORAD_CAT_ID   = 16719
ELEMENT_SET_NO = 999
REV_AT_EPOCH   = 17712
BSTAR          = .4048E-3
MEAN_MOTION_DOT = .29372E-3
MEAN_MOTION_DDOT = 0

